[{"OBJECT_NAME":"SL-16 R/B","OBJECT_ID":"1993-059B","EPOCH":"2026-03-24T22:25:13.467360","MEAN_MOTION":14.17235411,"ECCENTRICITY":0.00176283,"INCLINATION":70.9927,"RA_OF_ASC_NODE":338.9814,"ARG_OF_PERICENTER":194.496,"MEAN_ANOMALY":165.566,"EPHEMERIS_TYPE":0,"CLASSIFICATION_TYPE":"U","NORAD_CAT_ID":22803,"ELEMENT_SET_NO":999,"REV_AT_EPOCH":68169,"BSTAR":1.0751534e-5,"MEAN_MOTION_DOT":-2.6e-7,"MEAN_MOTION_DDOT":0},{"OBJECT_NAME":"ARIANE 40 R/B","OBJECT_ID":"1993-061H","EPOCH":"2026-03-24T22:07:05.165184","MEAN_MOTION":14.32868741,"ECCENTRICITY":0.00098119,"INCLINATION":98.4889,"RA_OF_ASC_NODE":152.5067,"ARG_OF_PERICENTER":234.8259,"MEAN_ANOMALY":125.2007,"EPHEMERIS_TYPE":0,"CLASSIFICATION_TYPE":"U","NORAD_CAT_ID":22830,"ELEMENT_SET_NO":999,"REV_AT_EPOCH":69628,"BSTAR":9.4617423e-5,"MEAN_MOTION_DOT":2.15e-6,"MEAN_MOTION_DDOT":0},{"OBJECT_NAME":"COSMOS 2278","OBJECT_ID":"1994-023A","EPOCH":"2026-03-24T20:58:34.206528","MEAN_MOTION":14.14376963,"ECCENTRICITY":0.00090127,"INCLINATION":71.0528,"RA_OF_ASC_NODE":143.3323,"ARG_OF_PERICENTER":348.7724,"MEAN_ANOMALY":11.3197,"EPHEMERIS_TYPE":0,"CLASSIFICATION_TYPE":"U","NORAD_CAT_ID":23087,"ELEMENT_SET_NO":999,"REV_AT_EPOCH":64695,"BSTAR":-0.00010460066,"MEAN_MOTION_DOT":-2.47e-6,"MEAN_MOTION_DDOT":0},{"OBJECT_NAME":"SL-16 R/B","OBJECT_ID":"1994-023B","EPOCH":"2026-03-24T23:37:29.275104","MEAN_MOTION":14.15012454,"ECCENTRICITY":0.00054571,"INCLINATION":71.0007,"RA_OF_ASC_NODE":38.7643,"ARG_OF_PERICENTER":270.9992,"MEAN_ANOMALY":89.0505,"EPHEMERIS_TYPE":0,"CLASSIFICATION_TYPE":"U","NORAD_CAT_ID":23088,"ELEMENT_SET_NO":999,"REV_AT_EPOCH":64825,"BSTAR":0.00017146296,"MEAN_MOTION_DOT":2.84e-6,"MEAN_MOTION_DDOT":0},{"OBJECT_NAME":"SL-16 R/B","OBJECT_ID":"1994-074B","EPOCH":"2026-03-24T19:54:33.483744","MEAN_MOTION":14.79424414,"ECCENTRICITY":0.00069961,"INCLINATION":97.7088,"RA_OF_ASC_NODE":114.0329,"ARG_OF_PERICENTER":160.1018,"MEAN_ANOMALY":13.0541,"EPHEMERIS_TYPE":0,"CLASSIFICATION_TYPE":"U","NORAD_CAT_ID":23343,"ELEMENT_SET_NO":999,"REV_AT_EPOCH":68948,"BSTAR":6.7738382e-5,"MEAN_MOTION_DOT":4.56e-6,"MEAN_MOTION_DDOT":0},{"OBJECT_NAME":"SL-16 R/B","OBJECT_ID":"1994-077B","EPOCH":"2026-03-24T23:02:24.633312","MEAN_MOTION":14.15568712,"ECCENTRICITY":0.00021887,"INCLINATION":70.9841,"RA_OF_ASC_NODE":320.3652,"ARG_OF_PERICENTER":198.3088,"MEAN_ANOMALY":161.7957,"EPHEMERIS_TYPE":0,"CLASSIFICATION_TYPE":"U","NORAD_CAT_ID":23405,"ELEMENT_SET_NO":999,"REV_AT_EPOCH":61839,"BSTAR":7.6620199e-5,"MEAN_MOTION_DOT":1.02e-6,"MEAN_MOTION_DDOT":0},{"OBJECT_NAME":"ARIANE 40+ R/B","OBJECT_ID":"1995-021B","EPOCH":"2026-03-24T23:43:17.347872","MEAN_MOTION":14.39783055,"ECCENTRICITY":0.00079663,"INCLINATION":98.447,"RA_OF_ASC_NODE":155.2618,"ARG_OF_PERICENTER":96.9532,"MEAN_ANOMALY":76.0499,"EPHEMERIS_TYPE":0,"CLASSIFICATION_TYPE":"U","NORAD_CAT_ID":23561,"ELEMENT_SET_NO":999,"REV_AT_EPOCH":62144,"BSTAR":0.00010684397,"MEAN_MOTION_DOT":2.92e-6,"MEAN_MOTION_DDOT":0},{"OBJECT_NAME":"SL-16 R/B","OBJECT_ID":"1995-058B","EPOCH":"2026-03-24T21:31:45.929568","MEAN_MOTION":14.15500443,"ECCENTRICITY":0.00101446,"INCLINATION":71.0214,"RA_OF_ASC_NODE":148.3302,"ARG_OF_PERICENTER":97.5629,"MEAN_ANOMALY":262.6647,"EPHEMERIS_TYPE":0,"CLASSIFICATION_TYPE":"U","NORAD_CAT_ID":23705,"ELEMENT_SET_NO":999,"REV_AT_EPOCH":57000,"BSTAR":-6.8382424e-5,"MEAN_MOTION_DOT":-1.81e-6,"MEAN_MOTION_DDOT":0},{"OBJECT_NAME":"SL-16 R/B","OBJECT_ID":"1996-051B","EPOCH":"2026-03-24T21:31:23.010240","MEAN_MOTION":14.12419856,"ECCENTRICITY":0.00138067,"INCLINATION":70.7592,"RA_OF_ASC_NODE":143.0533,"ARG_OF_PERICENTER":123.7907,"MEAN_ANOMALY":236.453,"EPHEMERIS_TYPE":0,"CLASSIFICATION_TYPE":"U","NORAD_CAT_ID":24298,"ELEMENT_SET_NO":999,"REV_AT_EPOCH":52379,"BSTAR":7.4462242e-5,"MEAN_MOTION_DOT":8.8e-7,"MEAN_MOTION_DDOT":0},{"OBJECT_NAME":"ORBVIEW 2 (SEASTAR)","OBJECT_ID":"1997-037A","EPOCH":"2026-03-24T21:24:01.838016","MEAN_MOTION":14.35505148,"ECCENTRICITY":0.0002592,"INCLINATION":98.8594,"RA_OF_ASC_NODE":248.6084,"ARG_OF_PERICENTER":39.7104,"MEAN_ANOMALY":320.427,"EPHEMERIS_TYPE":0,"CLASSIFICATION_TYPE":"U","NORAD_CAT_ID":24883,"ELEMENT_SET_NO":999,"REV_AT_EPOCH":51065,"BSTAR":0.00011362806,"MEAN_MOTION_DOT":2.8e-6,"MEAN_MOTION_DDOT":0},{"OBJECT_NAME":"SL-16 R/B","OBJECT_ID":"1998-043G","EPOCH":"2026-03-24T21:17:04.589088","MEAN_MOTION":14.26053161,"ECCENTRICITY":0.00094064,"INCLINATION":98.828,"RA_OF_ASC_NODE":37.3604,"ARG_OF_PERICENTER":336.5343,"MEAN_ANOMALY":23.5406,"EPHEMERIS_TYPE":0,"CLASSIFICATION_TYPE":"U","NORAD_CAT_ID":25400,"ELEMENT_SET_NO":999,"REV_AT_EPOCH":44115,"BSTAR":5.1603409e-5,"MEAN_MOTION_DOT":7.8e-7,"MEAN_MOTION_DDOT":0},{"OBJECT_NAME":"SL-16 R/B","OBJECT_ID":"1998-045B","EPOCH":"2026-03-24T14:49:54.122592","MEAN_MOTION":14.16195288,"ECCENTRICITY":0.00077582,"INCLINATION":71.0113,"RA_OF_ASC_NODE":150.1827,"ARG_OF_PERICENTER":344.4427,"MEAN_ANOMALY":15.6457,"EPHEMERIS_TYPE":0,"CLASSIFICATION_TYPE":"U","NORAD_CAT_ID":25407,"ELEMENT_SET_NO":999,"REV_AT_EPOCH":42921,"BSTAR":-6.544231e-5,"MEAN_MOTION_DOT":-1.77e-6,"MEAN_MOTION_DDOT":0},{"OBJECT_NAME":"ISS (ZARYA)","OBJECT_ID":"1998-067A","EPOCH":"2026-03-24T19:24:53.959968","MEAN_MOTION":15.48525391,"ECCENTRICITY":0.00062584,"INCLINATION":51.6344,"RA_OF_ASC_NODE":357.6177,"ARG_OF_PERICENTER":228.0573,"MEAN_ANOMALY":131.9883,"EPHEMERIS_TYPE":0,"CLASSIFICATION_TYPE":"U","NORAD_CAT_ID":25544,"ELEMENT_SET_NO":999,"REV_AT_EPOCH":55867,"BSTAR":0.00018679893,"MEAN_MOTION_DOT":9.69e-5,"MEAN_MOTION_DDOT":0},{"OBJECT_NAME":"CZ-4B R/B","OBJECT_ID":"1999-025C","EPOCH":"2026-03-24T20:31:52.664160","MEAN_MOTION":14.18268247,"ECCENTRICITY":0.00360933,"INCLINATION":98.6596,"RA_OF_ASC_NODE":127.7758,"ARG_OF_PERICENTER":302.1685,"MEAN_ANOMALY":231.906,"EPHEMERIS_TYPE":0,"CLASSIFICATION_TYPE":"U","NORAD_CAT_ID":25732,"ELEMENT_SET_NO":999,"REV_AT_EPOCH":39031,"BSTAR":4.0230371e-5,"MEAN_MOTION_DOT":4.0e-7,"MEAN_MOTION_DDOT":0},{"OBJECT_NAME":"OKEAN-O","OBJECT_ID":"1999-039A","EPOCH":"2026-03-24T22:16:15.051072","MEAN_MOTION":14.80358838,"ECCENTRICITY":9.15e-5,"INCLINATION":97.9411,"RA_OF_ASC_NODE":143.6622,"ARG_OF_PERICENTER":84.5778,"MEAN_ANOMALY":275.5539,"EPHEMERIS_TYPE":0,"CLASSIFICATION_TYPE":"U","NORAD_CAT_ID":25860,"ELEMENT_SET_NO":999,"REV_AT_EPOCH":43664,"BSTAR":9.4890903e-5,"MEAN_MOTION_DOT":6.72e-6,"MEAN_MOTION_DDOT":0},{"OBJECT_NAME":"SL-16 R/B","OBJECT_ID":"1999-039B","EPOCH":"2026-03-24T18:12:08.715744","MEAN_MOTION":14.81751071,"ECCENTRICITY":0.00142425,"INCLINATION":97.9934,"RA_OF_ASC_NODE":142.8303,"ARG_OF_PERICENTER":203.6646,"MEAN_ANOMALY":156.3914,"EPHEMERIS_TYPE":0,"CLASSIFICATION_TYPE":"U","NORAD_CAT_ID":25861,"ELEMENT_SET_NO":999,"REV_AT_EPOCH":43909,"BSTAR":7.5995607e-5,"MEAN_MOTION_DOT":5.46e-6,"MEAN_MOTION_DDOT":0},{"OBJECT_NAME":"DELTA 2 R/B","OBJECT_ID":"1999-041E","EPOCH":"2026-03-24T17:35:07.109088","MEAN_MOTION":14.11870834,"ECCENTRICITY":0.05026255,"INCLINATION":51.7605,"RA_OF_ASC_NODE":241.1883,"ARG_OF_PERICENTER":32.801,"MEAN_ANOMALY":330.3093,"EPHEMERIS_TYPE":0,"CLASSIFICATION_TYPE":"U","NORAD_CAT_ID":25876,"ELEMENT_SET_NO":999,"REV_AT_EPOCH":36515,"BSTAR":0.00012656062,"MEAN_MOTION_DOT":5.4e-6,"MEAN_MOTION_DDOT":0}]
